CELESTIS-17 & SHERPA-FX1
1 47486U 21006CB  26068.64311433  .00007207  00000+0  24301-3 0  9993
2 47486  97.2397 112.1052 0006630 178.1385 181.9882 15.30994801284065
STARLINK-31206          
1 59028U 24038F   26068.41316328 -.00000655  00000+0 -14307-4 0  9997
2 59028  42.9983 323.5845 0000464 349.5799  10.5043 15.27574840115486
