[{"OBJECT_NAME":"CELESTIS-17 & SHERPA-FX1","OBJECT_ID":"2021-006CB","EPOCH":"2026-03-09T15:26:05.078112","MEAN_MOTION":15.30994801,"ECCENTRICITY":0.000663,"INCLINATION":97.2397,"RA_OF_ASC_NODE":112.1052,"ARG_OF_PERICENTER":178.1385,"MEAN_ANOMALY":181.9882,"EPHEMERIS_TYPE":0,"CLASSIFICATION_TYPE":"U","NORAD_CAT_ID":47486,"ELEMENT_SET_NO":999,"REV_AT_EPOCH":28406,"BSTAR":0.00024301,"MEAN_MOTION_DOT":7.207e-5,"MEAN_MOTION_DDOT":0},{"OBJECT_NAME":"STARLINK-31206","OBJECT_ID":"2024-038F","EPOCH":"2026-03-09T09:54:57.307392","MEAN_MOTION":15.2757484,"ECCENTRICITY":4.644e-5,"INCLINATION":42.9983,"RA_OF_ASC_NODE":323.5845,"ARG_OF_PERICENTER":349.5799,"MEAN_ANOMALY":10.5043,"EPHEMERIS_TYPE":0,"CLASSIFICATION_TYPE":"U","NORAD_CAT_ID":59028,"ELEMENT_SET_NO":999,"REV_AT_EPOCH":11548,"BSTAR":-1.4306972e-5,"MEAN_MOTION_DOT":-6.55e-6,"MEAN_MOTION_DDOT":0}]
